NORAD_CAT_ID,OBJECT_NAME,OBJECT_TYPE,EPOCH,MEAN_MOTION,ECCENTRICITY,INCLINATION,RA_OF_ASC_NODE,ARG_OF_PERICENTER,MEAN_ANOMALY,BSTAR,MEAN_MOTION_DOT,MEAN_MOTION_DDOT,TLE_LINE0,TLE_LINE1,TLE_LINE2,SEMIMAJOR_AXIS,PERIOD,APOGEE,PERIGEE,DECAYED
53854.0,STARLINK-4800,PAYLOAD,2023-11-07 13:13:54,15.08821395,0.0001639,53.2152,154.2437,92.2014,267.9166,-0.00050191,-8.263e-05,0.0,0 STARLINK-4800,1 53854U 22114AN  23311.55132811 -.00008263  00000-0 -50191-3 0  9991,2 53854  53.2152 154.2437 0001639  92.2014 267.9166 15.08821395 64311,6917.937,95.439,540.936,538.668,0.0
53854.0,STARLINK-4800,PAYLOAD,2023-11-07 19:35:27,15.08809888,0.0001341,53.2156,153.0542,94.8345,265.28,-0.00047373,-7.813e-05,0.0,0 STARLINK-4800,1 53854U 22114AN  23311.81629383 -.00007813  00000-0 -47373-3 0  9993,2 53854  53.2156 153.0542 0001341  94.8345 265.2800 15.08809888 63817,6917.972,95.439,540.765,538.91,0.0
53854.0,STARLINK-4800,PAYLOAD,2023-11-08 13:04:43,15.08816851,0.0001319,53.2152,149.7827,93.9685,266.1458,0.00039529,6.005e-05,0.0,0 STARLINK-4800,1 53854U 22114AN  23312.54494814  .00006005  00000-0  39529-3 0  9997,2 53854  53.2152 149.7827 0001319  93.9685 266.1458 15.08816851 64462,6917.951,95.439,540.729,538.904,0.0
53854.0,STARLINK-4800,PAYLOAD,2023-11-08 19:26:16,15.08823996,0.000138,53.2148,148.5931,88.9718,271.1432,0.00080425,0.00012529,0.0,0 STARLINK-4800,1 53854U 22114AN  23312.80991291  .00012529  00000-0  80425-3 0  9996,2 53854  53.2148 148.5931 0001380  88.9718 271.1432 15.08823996 63969,6917.929,95.439,540.749,538.84,0.0
53854.0,STARLINK-4800,PAYLOAD,2023-11-09 12:55:31,15.0884417,0.0001389,53.2147,145.322,86.7076,273.4075,0.00085622,0.00013367,0.0,0 STARLINK-4800,1 53854U 22114AN  23313.53855495  .00013367  00000-0  85622-3 0  9997,2 53854  53.2147 145.3220 0001389  86.7076 273.4075 15.08844170 64614,6917.868,95.437,540.694,538.772,0.0
53854.0,STARLINK-4800,PAYLOAD,2023-11-09 19:17:03,15.08849553,0.0001388,53.2148,144.1323,85.7905,274.3246,0.00080399,0.00012534,0.0,0 STARLINK-4800,1 53854U 22114AN  23313.80351375  .00012534  00000-0  80399-3 0  9996,2 53854  53.2148 144.1323 0001388  85.7905 274.3246 15.08849553 64659,6917.851,95.437,540.676,538.756,0.0
53854.0,STARLINK-4800,PAYLOAD,2023-11-10 06:24:45,15.08858166,0.0001379,53.2147,142.0507,83.8821,276.2328,0.00071826,0.00011167,0.0,0 STARLINK-4800,1 53854U 22114AN  23314.26718939  .00011167  00000-0  71826-3 0  9996,2 53854  53.2147 142.0507 0001379  83.8821 276.2328 15.08858166 64185,6917.825,95.436,540.644,538.736,0.0
53854.0,STARLINK-4800,PAYLOAD,2023-11-10 19:07:49,15.08868244,0.0001415,53.2149,139.6712,84.9033,275.2121,0.00067495,0.00010478,0.0,0 STARLINK-4800,1 53854U 22114AN  23314.79710106  .00010478  00000-0  67495-3 0  9993,2 53854  53.2149 139.6712 0001415  84.9033 275.2121 15.08868244 64802,6917.794,95.436,540.638,538.68,0.0
53854.0,STARLINK-4800,PAYLOAD,2023-11-11 12:37:03,15.08858489,0.0001471,53.2153,136.3996,89.1721,270.9439,0.00024489,3.614e-05,0.0,0 STARLINK-4800,1 53854U 22114AN  23315.52573684  .00003614  00000-0  24489-3 0  9993,2 53854  53.2153 136.3996 0001471  89.1721 270.9439 15.08858489 64374,6917.824,95.436,540.706,538.671,0.0
53854.0,STARLINK-4800,PAYLOAD,2023-11-11 18:58:36,15.08847957,0.0001381,53.2153,135.209,87.4235,272.6915,-1.933e-05,-5.96e-06,0.0,0 STARLINK-4800,1 53854U 22114AN  23315.79069818 -.00000596  00000-0 -19330-4 0  9999,2 53854  53.2153 135.2090 0001381  87.4235 272.6915 15.08847957 64419,6917.856,95.437,540.676,538.766,0.0
53854.0,STARLINK-4800,PAYLOAD,2023-11-12 12:27:50,15.08843189,0.0001435,53.2155,131.9379,90.3351,269.7806,-0.00010672,-1.986e-05,0.0,0 STARLINK-4800,1 53854U 22114AN  23316.51933789 -.00001986  00000-0 -10672-3 0  9990,2 53854  53.2155 131.9379 0001435  90.3351 269.7806 15.08843189 65067,6917.871,95.437,540.728,538.743,0.0
53854.0,STARLINK-4800,PAYLOAD,2023-11-12 18:49:23,15.08849434,0.0001307,53.2164,130.75,92.7163,267.3979,-5.6239e-05,-1.183e-05,0.0,0 STARLINK-4800,1 53854U 22114AN  23316.78429708 -.00001183  00000-0 -56239-4 0  9999,2 53854  53.2164 130.7500 0001307  92.7163 267.3979 15.08849434 65104,6917.852,95.437,540.621,538.812,0.0
53854.0,STARLINK-4800,PAYLOAD,2023-11-13 12:18:37,15.08839145,0.0001344,53.2163,127.4792,92.3727,267.7419,8.469e-05,1.06e-05,0.0,0 STARLINK-4800,1 53854U 22114AN  23317.51293827  .00001060  00000-0  84690-4 0  9996,2 53854  53.2163 127.4792 0001344  92.3727 267.7419 15.08839145 64674,6917.883,95.438,540.678,538.818,0.0
53854.0,STARLINK-4800,PAYLOAD,2023-11-14 20:06:20,15.08839302,0.0001334,53.2173,121.5317,88.2905,271.824,4.4909e-05,4.27e-06,0.0,0 STARLINK-4800,1 53854U 22114AN  23318.83774097  .00000427  00000-0  44909-4 0  9990,2 53854  53.2173 121.5317 0001334  88.2905 271.8240 15.08839302 65410,6917.883,95.438,540.67,538.825,0.0
53854.0,STARLINK-4800,PAYLOAD,2023-11-15 10:24:48,15.08841793,0.0001382,53.2171,118.8548,84.4299,275.6851,3.196e-06,-2.37e-06,0.0,0 STARLINK-4800,1 53854U 22114AN  23319.43389821 -.00000237  00000-0  31960-5 0  9998,2 53854  53.2171 118.8548 0001382  84.4299 275.6851 15.08841793 65507,6917.875,95.437,540.696,538.784,0.0
53854.0,STARLINK-4800,PAYLOAD,2023-11-16 10:15:36,15.08840345,0.0001394,53.2168,114.3949,86.0898,274.0254,1.1228e-05,-1.09e-06,0.0,0 STARLINK-4800,1 53854U 22114AN  23320.42750000 -.00000109  00000-0  11228-4 0  9992,2 53854  53.2168 114.3949 0001394  86.0898 274.0254 15.08840345 65114,6917.879,95.438,540.709,538.78,0.0
53854.0,STARLINK-4800,PAYLOAD,2023-11-16 16:37:08,15.08839166,0.0001468,53.2169,113.2053,81.4446,278.6713,7.3315e-06,-1.71e-06,0.0,0 STARLINK-4800,1 53854U 22114AN  23320.69246162 -.00000171  00000-0  73315-5 0  9995,2 53854  53.2169 113.2053 0001468  81.4446 278.6713 15.08839166 65691,6917.883,95.438,540.763,538.732,0.0
53854.0,STARLINK-4800,PAYLOAD,2023-11-17 13:17:09,15.08803671,0.0002013,53.2154,109.3391,89.7683,270.354,0.00056533,8.712e-05,0.0,0 STARLINK-4800,1 53854U 22114AN  23321.55358793  .00008712  00000-0  56533-3 0  9994,2 53854  53.2154 109.3391 0002013  89.7683 270.3540 15.08803671 65821,6917.991,95.44,541.249,538.464,0.0
53854.0,STARLINK-4800,PAYLOAD,2023-11-18 03:35:37,15.08841558,0.0001509,53.2165,106.6623,90.4646,269.6519,6.7942e-05,7.94e-06,0.0,0 STARLINK-4800,1 53854U 22114AN  23322.14973968  .00000794  00000-0  67942-4 0  9996,2 53854  53.2165 106.6623 0001509  90.4646 269.6519 15.08841558 65371,6917.876,95.437,540.785,538.697,0.0
53854.0,STARLINK-4800,PAYLOAD,2023-11-18 13:07:56,15.0884351,0.0001478,53.2163,104.8782,91.0594,269.0568,-3.5698e-05,-8.56e-06,0.0,0 STARLINK-4800,1 53854U 22114AN  23322.54718145 -.00000856  00000-0 -35698-4 0  9998,2 53854  53.2163 104.8782 0001478  91.0594 269.0568 15.08843510 65973,6917.87,95.437,540.757,538.712,0.0
53854.0,STARLINK-4800,PAYLOAD,2023-11-18 16:18:42,15.08842162,0.0001578,53.2168,104.2838,89.7658,270.3515,2.4782e-05,1.06e-06,0.0,0 STARLINK-4800,1 53854U 22114AN  23322.67966114  .00000106  00000-0  24782-4 0  9991,2 53854  53.2168 104.2838 0001578  89.7658 270.3515 15.08842162 65991,6917.874,95.437,540.83,538.647,0.0
53854.0,STARLINK-4800,PAYLOAD,2023-11-19 12:58:43,15.08840712,0.0001507,53.2172,100.4183,93.4582,266.6582,9.1756e-06,-1.42e-06,0.0,0 STARLINK-4800,1 53854U 22114AN  23323.54078314 -.00000142  00000-0  91756-5 0  9991,2 53854  53.2172 100.4183 0001507  93.4582 266.6582 15.08840712 66124,6917.878,95.438,540.786,538.701,0.0
53854.0,STARLINK-4800,PAYLOAD,2023-11-19 19:20:15,15.08844909,0.0001385,53.218,99.2296,91.295,268.8201,4.4238e-05,4.16e-06,0.0,0 STARLINK-4800,1 53854U 22114AN  23323.80573904  .00000416  00000-0  44238-4 0  9990,2 53854  53.2180  99.2296 0001385  91.2950 268.8201 15.08844909 65620,6917.865,95.437,540.689,538.772,0.0
53854.0,STARLINK-4800,PAYLOAD,2023-11-20 09:38:44,15.08847211,0.0001809,53.2174,96.5519,88.3593,271.7607,-0.00014739,-2.634e-05,0.0,0 STARLINK-4800,1 53854U 22114AN  23324.40190527 -.00002634  00000-0 -14739-3 0  9991,2 53854  53.2174  96.5519 0001809  88.3593 271.7607 15.08847211 65714,6917.858,95.437,540.975,538.472,0.0
53854.0,STARLINK-4800,PAYLOAD,2023-11-20 14:24:54,15.08837659,0.000147,53.2178,95.6602,93.114,267.002,3.082e-05,2.03e-06,0.0,0 STARLINK-4800,1 53854U 22114AN  23324.60062510  .00000203  00000-0  30820-4 0  9991,2 53854  53.2178  95.6602 0001470  93.1140 267.0020 15.08837659 66282,6917.888,95.438,540.769,538.736,0.0
53854.0,STARLINK-4800,PAYLOAD,2023-11-20 17:35:39,15.08842152,0.0001317,53.2179,95.0665,91.5076,268.6067,5.9879e-05,6.65e-06,0.0,0 STARLINK-4800,1 53854U 22114AN  23324.73310138  .00000665  00000-0  59879-4 0  9994,2 53854  53.2179  95.0665 0001317  91.5076 268.6067 15.08842152 66301,6917.874,95.437,540.65,538.828,0.0
53854.0,STARLINK-4800,PAYLOAD,2023-11-21 09:29:31,15.08836825,0.0001266,53.2181,92.0928,90.5843,269.5295,-2.2025e-05,-6.38e-06,0.0,0 STARLINK-4800,1 53854U 22114AN  23325.39550825 -.00000638  00000-0 -22025-4 0  9991,2 53854  53.2181  92.0928 0001266  90.5843 269.5295 15.08836825 65860,6917.89,95.438,540.631,538.879,0.0
53854.0,STARLINK-4800,PAYLOAD,2023-11-21 12:40:18,15.08838709,0.0001287,53.2183,91.4982,92.0162,268.0978,-8.3637e-06,-4.21e-06,0.0,0 STARLINK-4800,1 53854U 22114AN  23325.52798719 -.00000421  00000-0 -83637-5 0  9999,2 53854  53.2183  91.4982 0001287  92.0162 268.0978 15.08838709 66427,6917.884,95.438,540.64,538.859,0.0
53854.0,STARLINK-4800,PAYLOAD,2023-11-21 19:01:50,15.0884419,0.0001342,53.2178,90.3079,85.8874,274.2271,5.9588e-05,6.61e-06,0.0,0 STARLINK-4800,1 53854U 22114AN  23325.79294167  .00000661  00000-0  59588-4 0  9997,2 53854  53.2178  90.3079 0001342  85.8874 274.2271 15.08844190 66468,6917.868,95.437,540.661,538.804,0.0
53854.0,STARLINK-4800,PAYLOAD,2023-11-22 14:06:27,15.08844895,0.0001584,53.2185,86.7394,92.2236,267.8938,6.9437e-05,8.17e-06,0.0,0 STARLINK-4800,1 53854U 22114AN  23326.58782209  .00000817  00000-0  69437-4 0  9991,2 53854  53.2185  86.7394 0001584  92.2236 267.8938 15.08844895 66580,6917.865,95.437,540.826,538.635,0.0
